[{"OBJECT_NAME":"STARLINK-2081","OBJECT_ID":"2021-005T","EPOCH":"2026-03-10T00:00:02.999808","MEAN_MOTION":15.11382096,"ECCENTRICITY":0.00011542,"INCLINATION":53.0731,"RA_OF_ASC_NODE":60.1713,"ARG_OF_PERICENTER":72.8925,"MEAN_ANOMALY":345.3499,"EPHEMERIS_TYPE":0,"CLASSIFICATION_TYPE":"U","NORAD_CAT_ID":47366,"ELEMENT_SET_NO":999,"REV_AT_EPOCH":574,"BSTAR":0.0047781147,"MEAN_MOTION_DOT":0.0008222,"MEAN_MOTION_DDOT":0},{"OBJECT_NAME":"DELTA 1 DEB","OBJECT_ID":"1977-065ED","EPOCH":"2026-03-08T13:54:07.358112","MEAN_MOTION":13.25885407,"ECCENTRICITY":0.08433341,"INCLINATION":29.0608,"RA_OF_ASC_NODE":1.9535,"ARG_OF_PERICENTER":35.0136,"MEAN_ANOMALY":330.3034,"EPHEMERIS_TYPE":0,"CLASSIFICATION_TYPE":"U","NORAD_CAT_ID":10471,"ELEMENT_SET_NO":999,"REV_AT_EPOCH":34001,"BSTAR":0.00062177821,"MEAN_MOTION_DOT":2.167e-5,"MEAN_MOTION_DDOT":0}]
